[{"OBJECT_NAME":"HAWK-A","OBJECT_ID":"2018-099H","EPOCH":"2026-03-09T16:13:51.062880","MEAN_MOTION":15.23231043,"ECCENTRICITY":0.00342596,"INCLINATION":97.4051,"RA_OF_ASC_NODE":122.2425,"ARG_OF_PERICENTER":275.5523,"MEAN_ANOMALY":84.1807,"EPHEMERIS_TYPE":0,"CLASSIFICATION_TYPE":"U","NORAD_CAT_ID":43765,"ELEMENT_SET_NO":999,"REV_AT_EPOCH":39794,"BSTAR":0.00036104215,"MEAN_MOTION_DOT":8.617e-5,"MEAN_MOTION_DDOT":0},{"OBJECT_NAME":"STARLINK-33882","OBJECT_ID":"2025-091P","EPOCH":"2026-03-08T23:29:16.217952","MEAN_MOTION":15.27604135,"ECCENTRICITY":0.0001337,"INCLINATION":43.0012,"RA_OF_ASC_NODE":56.5202,"ARG_OF_PERICENTER":173.0414,"MEAN_ANOMALY":187.0457,"EPHEMERIS_TYPE":0,"CLASSIFICATION_TYPE":"U","NORAD_CAT_ID":63788,"ELEMENT_SET_NO":999,"REV_AT_EPOCH":4878,"BSTAR":0.0011650705,"MEAN_MOTION_DOT":0.00031961,"MEAN_MOTION_DDOT":0}]
